STARLINK-11488 [DTC]    
1 62222U 24231E   26068.52311666  .00250590  00000+0  19978-2 0  9994
2 62222  53.1567 102.2104 0002685 145.5035 214.6158 15.69872849 73384
ISS OBJECT XW           
1 66910U 98067XW  26068.25909918  .00146604  00000+0  12540-2 0  9991
2 66910  51.6252  67.7624 0005143  83.0730 277.0851 15.68462358 15117
