[{"OBJECT_NAME":"STARLINK-11488 [DTC]","OBJECT_ID":"2024-231E","EPOCH":"2026-03-09T12:33:17.279424","MEAN_MOTION":15.69872849,"ECCENTRICITY":0.0002685,"INCLINATION":53.1567,"RA_OF_ASC_NODE":102.2104,"ARG_OF_PERICENTER":145.5035,"MEAN_ANOMALY":214.6158,"EPHEMERIS_TYPE":0,"CLASSIFICATION_TYPE":"U","NORAD_CAT_ID":62222,"ELEMENT_SET_NO":999,"REV_AT_EPOCH":7338,"BSTAR":0.0019978,"MEAN_MOTION_DOT":0.0025059,"MEAN_MOTION_DDOT":0},{"OBJECT_NAME":"ISS OBJECT XW","OBJECT_ID":"1998-067XW","EPOCH":"2026-03-09T06:13:06.169152","MEAN_MOTION":15.68462358,"ECCENTRICITY":0.00051435,"INCLINATION":51.6252,"RA_OF_ASC_NODE":67.7624,"ARG_OF_PERICENTER":83.073,"MEAN_ANOMALY":277.0851,"EPHEMERIS_TYPE":0,"CLASSIFICATION_TYPE":"U","NORAD_CAT_ID":66910,"ELEMENT_SET_NO":999,"REV_AT_EPOCH":1511,"BSTAR":0.0012539699,"MEAN_MOTION_DOT":0.00146604,"MEAN_MOTION_DDOT":0}]
